BEIDOU-2 IGSO-1 (C06)   
1 36828U 10036A   23197.71176088 -.00000104  00000+0  00000+0 0  9991
2 36828  54.2390 172.6245 0037689 192.5094 294.7496  1.00283242 47534
BEIDOU-2 G4 (C04)       
1 37210U 10057A   23197.45662962 -.00000113  00000+0  00000+0 0  9992
2 37210   1.0708  58.2366 0003827 144.5957  55.5824  1.00271266 46594
BEIDOU-2 IGSO-2 (C07)   
1 37256U 10068A   23197.18938403 -.00000187  00000+0  00000+0 0  9991
2 37256  49.4974 284.9129 0031652 208.7531 333.1214  1.00300410 46084
BEIDOU-2 IGSO-3 (C08)   
1 37384U 11013A   23197.57834166 -.00000173  00000+0  00000+0 0  9993
2 37384  60.8649  50.3768 0026352 173.7694  24.1094  1.00294841 44977
BEIDOU-2 IGSO-4 (C09)   
1 37763U 11038A   23197.40894054 -.00000034  00000+0  00000+0 0  9991
2 37763  54.5113 175.1579 0112155 228.6273 131.9871  1.00284557 43949
BEIDOU-2 IGSO-5 (C10)   
1 37948U 11073A   23197.70100295 -.00000143  00000+0  00000+0 0  9996
2 37948  49.6215 284.5726 0093871 219.2174 138.1792  1.00284666 42705
BEIDOU-2 G5 (C05)       
1 38091U 12008A   23197.18669354  .00000056  00000+0  00000+0 0  9995
2 38091   1.5946  67.4841 0000867 250.9802 101.2181  1.00268373 41778
BEIDOU-2 M3 (C11)       
1 38250U 12018A   23197.79835098 -.00000114  00000+0  00000+0 0  9996
2 38250  56.5391 340.5156 0021354 255.5181 104.2346  1.86231301 76429
BEIDOU-2 M4 (C12)       
1 38251U 12018B   23197.72999341 -.00000114  00000+0  00000+0 0  9992
2 38251  56.4504 339.8145 0012203 255.6222 104.2320  1.86232020 76425
BEIDOU-2 M6 (C14)       
1 38775U 12050B   23198.15035826 -.00000053  00000+0  00000+0 0  9998
2 38775  55.6553  98.4187 0013960 332.2482 143.9262  1.86231307 73818
BEIDOU-2 G6 (C02)       
1 38953U 12059A   23197.87319920 -.00000177  00000+0  00000+0 0  9990
2 38953   1.9072  82.3398 0009429 319.3081 291.0764  1.00275422 39353
BEIDOU-3S IGSO-1S (C31) 
1 40549U 15019A   23197.75872809 -.00000191  00000+0  00000+0 0  9996
2 40549  51.1900 308.1540 0040104 193.1023 162.4628  1.00267559 30387
BEIDOU-3S M2S (C57)     
1 40748U 15037A   23196.32237126 -.00000119  00000+0  00000+0 0  9996
2 40748  55.6932 338.4923 0009018 238.3168 121.5846  1.86233249 54235
BEIDOU-3S M1S (C58)     
1 40749U 15037B   23197.66629965 -.00000115  00000+0  00000+0 0  9997
2 40749  55.6952 338.4332 0002550 345.4441  14.5385  1.86233063 54255
BEIDOU-3S IGSO-2S (C56) 
1 40938U 15053A   23197.14869888 -.00000100  00000+0  00000+0 0  9992
2 40938  50.8841 271.3288 0047713 192.4402 336.9005  1.00294577 28648
BEIDOU-2 IGSO-6 (C13)   
1 41434U 16021A   23197.39176001 -.00000149  00000+0  00000+0 0  9998
2 41434  58.6771  48.7729 0045729 218.7267 261.8082  1.00293001 26785
BEIDOU-2 G7 (C03)       
1 41586U 16037A   23197.15861437 -.00000356  00000+0  00000+0 0  9991
2 41586   1.7554  67.6764 0007680 350.5968  43.1110  1.00271486 26086
BEIDOU-3 M1 (C19)       
1 43001U 17069A   23197.20648691 -.00000064  00000+0  00000+0 0  9998
2 43001  55.8061  98.5018 0009917 303.5330  56.3986  1.86231784 38737
BEIDOU-3 M2 (C20)       
1 43002U 17069B   23197.14309252 -.00000064  00000+0  00000+0 0  9999
2 43002  55.8055  98.5404 0008288 327.3944  32.5802  1.86231267 38723
BEIDOU-3 M7 (C27)       
1 43107U 18003A   23196.89419937 -.00000118  00000+0  00000+0 0  9997
2 43107  55.1482 339.2117 0004755  74.8818 285.1607  1.86232606 37480
BEIDOU-3 M8 (C28)       
1 43108U 18003B   23197.36883888 -.00000117  00000+0  00000+0 0  9990
2 43108  55.1412 339.1827 0002741 239.5047 120.4584  1.86231072 37490
BEIDOU-3 M4 (C22)       
1 43207U 18018A   23197.27448658 -.00000063  00000+0  00000+0 0  9998
2 43207  55.7649  98.6004 0006232 355.0302   4.9900  1.86231727 36875
BEIDOU-3 M3 (C21)       
1 43208U 18018B   23197.34110656 -.00000062  00000+0  00000+0 0  9990
2 43208  55.7644  98.6025 0007957 316.9641  43.0005  1.86231579 36876
BEIDOU-3 M9 (C29)       
1 43245U 18029A   23197.56420719 -.00000116  00000+0  00000+0 0  9991
2 43245  55.0441 336.9268 0000826 151.3965 208.5984  1.86232880 36038
BEIDOU-3 M10 (C30)      
1 43246U 18029B   23197.49432161 -.00000116  00000+0  00000+0 0  9998
2 43246  55.0414 336.9583 0003285  16.7931 343.2080  1.86233071 36024
BEIDOU-2 IGSO-7 (C16)   
1 43539U 18057A   23197.84510772 -.00000103  00000+0  00000+0 0  9994
2 43539  55.1222 172.2917 0065218 232.2404 304.3196  1.00298966 18467
BEIDOU-3 M5 (C23)       
1 43581U 18062A   23197.17797969  .00000075  00000+0  00000+0 0  9995
2 43581  54.1855 218.6238 0005754 271.2278  88.7666  1.86232031 33767
BEIDOU-3 M6 (C24)       
1 43582U 18062B   23197.58024889  .00000070  00000+0  00000+0 0  9990
2 43582  54.1854 218.5997 0004354 345.4956  14.5507  1.86229728 33771
BEIDOU-3 M12 (C26)      
1 43602U 18067A   23196.98009332  .00000077  00000+0  00000+0 0  9994
2 43602  54.2720 217.2709 0006541   9.0544 351.0159  1.86231716 33244
BEIDOU-3 M11 (C25)      
1 43603U 18067B   23197.11390150  .00000075  00000+0  00000+0 0  9990
2 43603  54.2691 217.2320 0003781 350.1249   9.9256  1.86231638 33279
BEIDOU-3 M13 (C32)      
1 43622U 18072A   23197.07226732 -.00000065  00000+0  00000+0 0  9996
2 43622  55.7340  98.1491 0006519 301.9985  57.9642  1.86231796 32787
BEIDOU-3 M14 (C33)      
1 43623U 18072B   23196.93772470 -.00000067  00000+0  00000+0 0  9998
2 43623  55.7357  98.1462 0004887 332.1370  27.8620  1.86231798 32788
BEIDOU-3 M16 (C35)      
1 43647U 18078A   23197.63585951 -.00000116  00000+0  00000+0 0  9999
2 43647  54.9401 337.0511 0006664  18.1787 341.8355  1.86227424 32306
BEIDOU-3 M15 (C34)      
1 43648U 18078B   23197.76780902 -.00000115  00000+0  00000+0 0  9996
2 43648  54.9358 337.0508 0003838  36.3979 323.6189  1.86232429 32325
BEIDOU-3 G1 (C59)       
1 43683U 18085A   23197.08938378 -.00000279  00000+0  00000+0 0  9991
2 43683   1.4094 127.9800 0003224 333.6572   4.2180  1.00275147 17359
BEIDOU-3 M17 (C36)      
1 43706U 18093A   23197.37939567  .00000073  00000+0  00000+0 0  9990
2 43706  54.2679 218.5305 0010794 275.4670  84.4693  1.86232131 31657
BEIDOU-3 M18 (C37)      
1 43707U 18093B   23197.24476589  .00000074  00000+0  00000+0 0  9998
2 43707  54.2687 218.5267 0008659 298.2949  61.6777  1.86229922 31668
BEIDOU-3 IGSO-1 (C38)   
1 44204U 19023A   23196.98660649 -.00000215  00000+0  00000+0 0  9995
2 44204  57.1418  48.7721 0022192 194.7348 162.4224  1.00298139 15654
BEIDOU-2 G8 (C01)       
1 44231U 19027A   23197.70550331 -.00000250  00000+0  00000+0 0  9995
2 44231   1.8331  81.2732 0004987 123.9829 127.3539  1.00277483 15375
BEIDOU-3 IGSO-2 (C39)   
1 44337U 19035A   23197.88282421 -.00000118  00000+0  00000+0 0  9995
2 44337  55.1540 168.2268 0033338 198.9529   3.3138  1.00290410 15000
BEIDOU-3 M24 (C46)      
1 44542U 19061A   23197.31687288  .00000074  00000+0  00000+0 0  9990
2 44542  54.4948 218.7526 0007982 332.6776  27.3408  1.86231399 25920
BEIDOU-3 M23 (C45)      
1 44543U 19061B   23197.71875237  .00000070  00000+0  00000+0 0  9994
2 44543  54.4934 218.7082 0005761 312.8735 228.4131  1.86231811 25927
BEIDOU-3 IGSO-3 (C40)   
1 44709U 19073A   23196.67179441 -.00000198  00000+0  00000+0 0  9991
2 44709  56.6182 292.2860 0034506 187.1051 172.8891  1.00297619 13739
BEIDOU-3 M22 (C44)      
1 44793U 19078A   23196.08803900 -.00000120  00000+0  00000+0 0  9993
2 44793  54.7897 337.0778 0005747  27.7801 332.2401  1.86232346 24761
BEIDOU-3 M21 (C43)      
1 44794U 19078B   23197.82957722 -.00000115  00000+0  00000+0 0  9993
2 44794  54.7623 337.0010 0003549  26.9404 333.0689  1.86232837 24791
BEIDOU-3 M19 (C41)      
1 44864U 19090A   23197.15754062 -.00000065  00000+0  00000+0 0  9997
2 44864  55.6686  98.3354 0016986 279.0745 184.2711  1.86232013 24354
BEIDOU-3 M20 (C42)      
1 44865U 19090B   23197.73497017 -.00000058  00000+0  00000+0 0  9998
2 44865  55.6707  98.3489 0015122 293.2375 287.0423  1.86231976 24344
BEIDOU-3 G2 (C60)       
1 45344U 20017A   23197.05188390 -.00000142  00000+0  00000+0 0  9992
2 45344   2.0220  13.5861 0002999 123.2058 255.5534  1.00272536 12572
BEIDOU-3 G3 (C61)       
1 45807U 20040A   23197.04077257 -.00000353  00000+0  00000+0 0  9994
2 45807   0.6680 334.3407 0005573  15.9946  68.3766  1.00277455 11384
BEIDOU-3 G4             
1 56564U 23066A   23196.92017108 -.00000108  00000+0  00000+0 0  9990
2 56564   2.9674 289.0605 0006994 197.3855 298.3057  1.00271261   703
